HAWK-2B                 
1 47508U 21006CZ  26068.67629241  .00009474  00000+0  29651-3 0  9991
2 47508  97.2334 114.1140 0007102 185.9063 174.2098 15.33301353284246
STARLINK-32151          
1 60299U 24132X   26068.27652203  .00000598  00000+0  32345-4 0  9999
2 60299  53.1616  25.9023 0001195  75.1928 284.9205 15.30180538 91890
